start=new Date('2023-06-14T00:00:00.000Z').valueOf();
sats=[{"RA_OF_ASC_NODE":"153.0252","CENTER_NAME":"EARTH","ECCENTRICITY":"0.00009200","SITE":"AFETR","TLE_LINE2":"2 48392  53.0529 153.0252 0000920  81.0241 279.0852 15.06387905117722","ELEMENT_SET_NO":"999","DECAY_DATE":null,"CLASSIFICATION_TYPE":"U","PERIAPSIS":"546.613","ARG_OF_PERICENTER":"81.0241","GP_ID":"233871529","MEAN_MOTION_DOT":"-0.00000141","INCLINATION":"53.0529","MEAN_ELEMENT_THEORY":"SGP4","RCS_SIZE":"LARGE","REV_AT_EPOCH":"11772","OBJECT_TYPE":"PAYLOAD","SEMIMAJOR_AXIS":"6925.386","MEAN_MOTION":"15.06387905","OBJECT_ID":"2021-038AR","REF_FRAME":"TEME","PERIOD":"95.593","FILE":"3932371","EPHEMERIS_TYPE":"0","EPOCH":"2023-06-13T04:36:47.218752","BSTAR":"0.00000941130000","NORAD_CAT_ID":"48392","COUNTRY_CODE":"US","TLE_LINE1":"1 48392U 21038AR  23164.19221318 -.00000141  00000-0  94113-5 0  9993","MEAN_ANOMALY":"279.0852","OBJECT_NAME":"STARLINK-2605","APOAPSIS":"547.888","TIME_SYSTEM":"UTC","MEAN_MOTION_DDOT":"0.0000000000000","LAUNCH_DATE":"2021-05-04"},{"CENTER_NAME":"EARTH","RA_OF_ASC_NODE":"152.1488","RCS_SIZE":"LARGE","REV_AT_EPOCH":"11775","OBJECT_TYPE":"PAYLOAD","GP_ID":"233839069","MEAN_MOTION_DOT":"0.00000096","MEAN_ELEMENT_THEORY":"SGP4","INCLINATION":"53.0538","ELEMENT_SET_NO":"999","DECAY_DATE":null,"PERIAPSIS":"546.453","ARG_OF_PERICENTER":"87.5676","CLASSIFICATION_TYPE":"U","ECCENTRICITY":"0.00011370","TLE_LINE2":"2 48393  53.0538 152.1488 0001137  87.5676 272.5443 15.06391391117759","SITE":"AFETR","EPHEMERIS_TYPE":"0","PERIOD":"95.593","REF_FRAME":"TEME","FILE":"3932134","MEAN_MOTION":"15.06391391","OBJECT_ID":"2021-038AS","SEMIMAJOR_AXIS":"6925.375","MEAN_MOTION_DDOT":"0.0000000000000","LAUNCH_DATE":"2021-05-04","TIME_SYSTEM":"UTC","APOAPSIS":"548.027","OBJECT_NAME":"STARLINK-2602","TLE_LINE1":"1 48393U 21038AS  23164.38757011  .00000096  00000-0  25370-4 0  9995","MEAN_ANOMALY":"272.5443","EPOCH":"2023-06-13T09:18:06.057504","BSTAR":"0.00002537000000","COUNTRY_CODE":"US","NORAD_CAT_ID":"48393"},{"RA_OF_ASC_NODE":"152.1654","CENTER_NAME":"EARTH","PERIAPSIS":"546.477","ARG_OF_PERICENTER":"86.9023","CLASSIFICATION_TYPE":"U","DECAY_DATE":null,"ELEMENT_SET_NO":"999","SITE":"AFETR","TLE_LINE2":"2 48394  53.0535 152.1654 0001102  86.9023 273.2092 15.06391386117755","ECCENTRICITY":"0.00011020","OBJECT_TYPE":"PAYLOAD","RCS_SIZE":"LARGE","REV_AT_EPOCH":"11775","INCLINATION":"53.0535","MEAN_ELEMENT_THEORY":"SGP4","GP_ID":"233839821","MEAN_MOTION_DOT":"-0.00000107","SEMIMAJOR_AXIS":"6925.375","MEAN_MOTION":"15.06391386","OBJECT_ID":"2021-038AT","EPHEMERIS_TYPE":"0","FILE":"3932134","REF_FRAME":"TEME","PERIOD":"95.593","TLE_LINE1":"1 48394U 21038AT  23164.38388242 -.00000107  00000-0  11732-4 0  9993","OBJECT_NAME":"STARLINK-2573","MEAN_ANOMALY":"273.2092","NORAD_CAT_ID":"48394","COUNTRY_CODE":"US","EPOCH":"2023-06-13T09:12:47.441088","BSTAR":"0.00001173200000","LAUNCH_DATE":"2021-05-04","MEAN_MOTION_DDOT":"0.0000000000000","APOAPSIS":"548.003","TIME_SYSTEM":"UTC"},{"LAUNCH_DATE":"2021-05-04","MEAN_MOTION_DDOT":"0.0000000000000","APOAPSIS":"547.988","TIME_SYSTEM":"UTC","TLE_LINE1":"1 48395U 21038AU  23164.22915278 -.00000039  00000-0  16288-4 0  9997","MEAN_ANOMALY":"276.7961","OBJECT_NAME":"STARLINK-2574","NORAD_CAT_ID":"48395","COUNTRY_CODE":"US","EPOCH":"2023-06-13T05:29:58.800192","BSTAR":"0.00001628800000","EPHEMERIS_TYPE":"0","FILE":"3932134","REF_FRAME":"TEME","PERIOD":"95.593","SEMIMAJOR_AXIS":"6925.380","OBJECT_ID":"2021-038AU","MEAN_MOTION":"15.06389650","OBJECT_TYPE":"PAYLOAD","RCS_SIZE":"LARGE","REV_AT_EPOCH":"11772","MEAN_ELEMENT_THEORY":"SGP4","INCLINATION":"53.0543","MEAN_MOTION_DOT":"-0.00000039","GP_ID":"233839572","CLASSIFICATION_TYPE":"U","PERIAPSIS":"546.503","ARG_OF_PERICENTER":"83.3150","ELEMENT_SET_NO":"999","DECAY_DATE":null,"SITE":"AFETR","TLE_LINE2":"2 48395  53.0543 153.4894 0001072  83.3150 276.7961 15.06389650117724","ECCENTRICITY":"0.00010720","CENTER_NAME":"EARTH","RA_OF_ASC_NODE":"153.4894"},{"EPHEMERIS_TYPE":"0","FILE":"3932371","REF_FRAME":"TEME","PERIOD":"95.593","MEAN_MOTION":"15.06390799","OBJECT_ID":"2021-038AV","SEMIMAJOR_AXIS":"6925.377","LAUNCH_DATE":"2021-05-04","MEAN_MOTION_DDOT":"0.0000000000000","TIME_SYSTEM":"UTC","APOAPSIS":"548.152","MEAN_ANOMALY":"281.6782","TLE_LINE1":"1 48396U 21038AV  23164.24750078 -.00001384  00000-0 -74089-4 0  9993","OBJECT_NAME":"STARLINK-2575","NORAD_CAT_ID":"48396","COUNTRY_CODE":"US","BSTAR":"-0.00007408900000","EPOCH":"2023-06-13T05:56:24.067392","CENTER_NAME":"EARTH","RA_OF_ASC_NODE":"152.7744","OBJECT_TYPE":"PAYLOAD","REV_AT_EPOCH":"11773","RCS_SIZE":"LARGE","MEAN_ELEMENT_THEORY":"SGP4","INCLINATION":"53.0540","MEAN_MOTION_DOT":"-0.00001384","GP_ID":"233871029","CLASSIFICATION_TYPE":"U","PERIAPSIS":"546.331","ARG_OF_PERICENTER":"78.4354","DECAY_DATE":null,"ELEMENT_SET_NO":"999","TLE_LINE2":"2 48396  53.0540 152.7744 0001315  78.4354 281.6782 15.06390799117732","SITE":"AFETR","ECCENTRICITY":"0.00013150"},{"CENTER_NAME":"EARTH","RA_OF_ASC_NODE":"152.1986","MEAN_ELEMENT_THEORY":"SGP4","INCLINATION":"53.0536","GP_ID":"233838570","MEAN_MOTION_DOT":"0.00000096","OBJECT_TYPE":"PAYLOAD","REV_AT_EPOCH":"11775","RCS_SIZE":"LARGE","TLE_LINE2":"2 48397  53.0536 152.1986 0001057  80.8149 279.2959 15.06395243117752","SITE":"AFETR","ECCENTRICITY":"0.00010570","PERIAPSIS":"546.496","CLASSIFICATION_TYPE":"U","ARG_OF_PERICENTER":"80.8149","DECAY_DATE":null,"ELEMENT_SET_NO":"999","FILE":"3932134","PERIOD":"95.592","REF_FRAME":"TEME","EPHEMERIS_TYPE":"0","OBJECT_ID":"2021-038AW","MEAN_MOTION":"15.06395243","SEMIMAJOR_AXIS":"6925.363","TIME_SYSTEM":"UTC","APOAPSIS":"547.960","LAUNCH_DATE":"2021-05-04","MEAN_MOTION_DDOT":"0.0000000000000","COUNTRY_CODE":"US","NORAD_CAT_ID":"48397","BSTAR":"0.00002534700000","EPOCH":"2023-06-13T09:02:10.294656","OBJECT_NAME":"STARLINK-2590","TLE_LINE1":"1 48397U 21038AW  23164.37650804  .00000096  00000-0  25347-4 0  9994","MEAN_ANOMALY":"279.2959"},{"CENTER_NAME":"EARTH","RA_OF_ASC_NODE":"152.8060","GP_ID":"233872529","MEAN_MOTION_DOT":"0.00000121","MEAN_ELEMENT_THEORY":"SGP4","INCLINATION":"53.0547","REV_AT_EPOCH":"11773","RCS_SIZE":"LARGE","OBJECT_TYPE":"PAYLOAD","ECCENTRICITY":"0.00011640","SITE":"AFETR","TLE_LINE2":"2 48398  53.0547 152.8060 0001164  72.0738 288.0378 15.06391611117737","ELEMENT_SET_NO":"999","DECAY_DATE":null,"ARG_OF_PERICENTER":"72.0738","PERIAPSIS":"546.433","CLASSIFICATION_TYPE":"U","REF_FRAME":"TEME","PERIOD":"95.593","FILE":"3932371","EPHEMERIS_TYPE":"0","SEMIMAJOR_AXIS":"6925.374","MEAN_MOTION":"15.06391611","OBJECT_ID":"2021-038AX","APOAPSIS":"548.045","TIME_SYSTEM":"UTC","MEAN_MOTION_DDOT":"0.0000000000000","LAUNCH_DATE":"2021-05-04","BSTAR":"0.00002700000000","EPOCH":"2023-06-13T05:45:47.335680","COUNTRY_CODE":"US","NORAD_CAT_ID":"48398","TLE_LINE1":"1 48398U 21038AX  23164.24013120  .00000121  00000-0  27000-4 0  9992","MEAN_ANOMALY":"288.0378","OBJECT_NAME":"STARLINK-2588"},{"CENTER_NAME":"EARTH","RA_OF_ASC_NODE":"152.2344","GP_ID":"233840072","MEAN_MOTION_DOT":"0.00000850","MEAN_ELEMENT_THEORY":"SGP4","INCLINATION":"53.0552","RCS_SIZE":"LARGE","REV_AT_EPOCH":"11774","OBJECT_TYPE":"PAYLOAD","ECCENTRICITY":"0.00011170","TLE_LINE2":"2 48399  53.0552 152.2344 0001117  85.9276 274.1840 15.06394598117749","SITE":"AFETR","DECAY_DATE":null,"ELEMENT_SET_NO":"999","ARG_OF_PERICENTER":"85.9276","PERIAPSIS":"546.457","CLASSIFICATION_TYPE":"U","REF_FRAME":"TEME","PERIOD":"95.592","FILE":"3932134","EPHEMERIS_TYPE":"0","OBJECT_ID":"2021-038AY","MEAN_MOTION":"15.06394598","SEMIMAJOR_AXIS":"6925.365","TIME_SYSTEM":"UTC","APOAPSIS":"548.004","MEAN_MOTION_DDOT":"0.0000000000000","LAUNCH_DATE":"2021-05-04","BSTAR":"0.00007598400000","EPOCH":"2023-06-13T08:51:33.479136","COUNTRY_CODE":"US","NORAD_CAT_ID":"48399","MEAN_ANOMALY":"274.1840","TLE_LINE1":"1 48399U 21038AY  23164.36913749  .00000850  00000-0  75984-4 0  9995","OBJECT_NAME":"STARLINK-2587"},{"RA_OF_ASC_NODE":"152.2493","CENTER_NAME":"EARTH","PERIAPSIS":"546.480","ARG_OF_PERICENTER":"89.6651","CLASSIFICATION_TYPE":"U","DECAY_DATE":null,"ELEMENT_SET_NO":"999","SITE":"AFETR","TLE_LINE2":"2 48400  53.0547 152.2493 0001085  89.6651 270.4462 15.06394279116534","ECCENTRICITY":"0.00010850","OBJECT_TYPE":"PAYLOAD","REV_AT_EPOCH":"11653","RCS_SIZE":"LARGE","INCLINATION":"53.0547","MEAN_ELEMENT_THEORY":"SGP4","MEAN_MOTION_DOT":"0.00000372","GP_ID":"233838820","SEMIMAJOR_AXIS":"6925.366","OBJECT_ID":"2021-038AZ","MEAN_MOTION":"15.06394279","EPHEMERIS_TYPE":"0","FILE":"3932134","PERIOD":"95.593","REF_FRAME":"TEME","TLE_LINE1":"1 48400U 21038AZ  23164.36545192  .00000372  00000-0  43895-4 0  9996","OBJECT_NAME":"STARLINK-2576","MEAN_ANOMALY":"270.4462","COUNTRY_CODE":"US","NORAD_CAT_ID":"48400","EPOCH":"2023-06-13T08:46:15.045888","BSTAR":"0.00004389500000","LAUNCH_DATE":"2021-05-04","MEAN_MOTION_DDOT":"0.0000000000000","APOAPSIS":"547.982","TIME_SYSTEM":"UTC"},{"ELEMENT_SET_NO":"999","DECAY_DATE":null,"PERIAPSIS":"546.608","ARG_OF_PERICENTER":"78.5161","CLASSIFICATION_TYPE":"U","ECCENTRICITY":"0.00009220","SITE":"AFETR","TLE_LINE2":"2 48401  53.0542 152.9848 0000922  78.5161 281.5931 15.06389113116505","RCS_SIZE":"LARGE","REV_AT_EPOCH":"11650","OBJECT_TYPE":"PAYLOAD","MEAN_MOTION_DOT":"0.00000250","GP_ID":"233871782","INCLINATION":"53.0542","MEAN_ELEMENT_THEORY":"SGP4","RA_OF_ASC_NODE":"152.9848","CENTER_NAME":"EARTH","TLE_LINE1":"1 48401U 21038BA  23164.20327286  .00000250  00000-0  35689-4 0  9999","OBJECT_NAME":"STARLINK-2571","MEAN_ANOMALY":"281.5931","BSTAR":"0.00003568900000","EPOCH":"2023-06-13T04:52:42.775104","NORAD_CAT_ID":"48401","COUNTRY_CODE":"US","MEAN_MOTION_DDOT":"0.0000000000000","LAUNCH_DATE":"2021-05-04","APOAPSIS":"547.885","TIME_SYSTEM":"UTC","SEMIMAJOR_AXIS":"6925.382","OBJECT_ID":"2021-038BA","MEAN_MOTION":"15.06389113","EPHEMERIS_TYPE":"0","PERIOD":"95.593","REF_FRAME":"TEME","FILE":"3932371"}];
